NORAD_CAT_ID,OBJECT_NAME,OBJECT_TYPE,EPOCH,MEAN_MOTION,ECCENTRICITY,INCLINATION,RA_OF_ASC_NODE,ARG_OF_PERICENTER,MEAN_ANOMALY,BSTAR,MEAN_MOTION_DOT,MEAN_MOTION_DDOT,TLE_LINE0,TLE_LINE1,TLE_LINE2,SEMIMAJOR_AXIS,PERIOD,APOGEE,PERIGEE,DECAYED
55917.0,STARLINK-5855,PAYLOAD,2023-12-10 21:57:11,15.03270998,0.0002636,69.9995,210.1675,280.1253,79.9611,0.0004963,6.649e-05,0.0,0 STARLINK-5855,1 55917U 23037D   23344.91471734  .00006649  00000-0  49630-3 0  9994,2 55917  69.9995 210.1675 0002636 280.1253  79.9611 15.03270998 40726,6934.955,95.791,558.648,554.992,0.0
55917.0,STARLINK-5855,PAYLOAD,2023-12-11 01:08:49,15.03273726,0.0002791,69.9993,209.83,281.2282,78.8566,0.00050457,6.762e-05,0.0,0 STARLINK-5855,1 55917U 23037D   23345.04779811  .00006762  00000-0  50457-3 0  9991,2 55917  69.9993 209.8300 0002791 281.2282  78.8566 15.03273726 40741,6934.947,95.791,558.747,554.876,0.0
55917.0,STARLINK-5855,PAYLOAD,2023-12-11 21:54:27,15.03283575,0.0002616,69.9993,207.6319,279.0754,81.0112,0.0004741,6.349e-05,0.0,0 STARLINK-5855,1 55917U 23037D   23345.91282219  .00006349  00000-0  47410-3 0  9994,2 55917  69.9993 207.6319 0002616 279.0754  81.0112 15.03283575 40872,6934.916,95.79,558.596,554.967,0.0
55917.0,STARLINK-5855,PAYLOAD,2023-12-12 01:06:05,15.03285086,0.0002641,69.9991,207.294,280.5285,79.5579,0.00045562,6.097e-05,0.0,0 STARLINK-5855,1 55917U 23037D   23346.04590235  .00006097  00000-0  45562-3 0  9995,2 55917  69.9991 207.2940 0002641 280.5285  79.5579 15.03285086 41239,6934.912,95.79,558.608,554.945,0.0
55917.0,STARLINK-5855,PAYLOAD,2023-12-12 21:51:43,15.03299822,0.0002591,69.9989,205.0962,279.9113,80.1756,0.00060378,8.117e-05,0.0,0 STARLINK-5855,1 55917U 23037D   23346.91091907  .00008117  00000-0  60378-3 0  9990,2 55917  69.9989 205.0962 0002591 279.9113  80.1756 15.03299822 41027,6934.866,95.789,558.528,554.935,0.0
55917.0,STARLINK-5855,PAYLOAD,2023-12-13 01:03:21,15.0330095,0.0002646,69.9988,204.7577,282.5739,77.5127,0.00058336,7.84e-05,0.0,0 STARLINK-5855,1 55917U 23037D   23347.04399830  .00007840  00000-0  58336-3 0  9994,2 55917  69.9988 204.7577 0002646 282.5739  77.5127 15.03300950 41048,6934.863,95.789,558.563,554.893,0.0
55917.0,STARLINK-5855,PAYLOAD,2023-12-13 18:37:20,15.03307798,0.0002622,69.9987,202.8978,284.9149,75.1722,0.00050169,6.728e-05,0.0,0 STARLINK-5855,1 55917U 23037D   23347.77593030  .00006728  00000-0  50169-3 0  9992,2 55917  69.9987 202.8978 0002622 284.9149  75.1722 15.03307798 41497,6934.842,95.789,558.525,554.889,0.0
55917.0,STARLINK-5855,PAYLOAD,2023-12-13 21:48:58,15.03310319,0.0002595,69.9987,202.5598,284.075,76.0123,0.00051962,6.973e-05,0.0,0 STARLINK-5855,1 55917U 23037D   23347.90900786  .00006973  00000-0  51962-3 0  9991,2 55917  69.9987 202.5598 0002595 284.0750  76.0123 15.03310319 41173,6934.834,95.789,558.499,554.9,0.0
55917.0,STARLINK-5855,PAYLOAD,2023-12-13 23:24:47,15.0331029,0.000263,69.9986,202.3906,285.7944,74.2927,0.00050174,6.73e-05,0.0,0 STARLINK-5855,1 55917U 23037D   23347.97554716  .00006730  00000-0  50174-3 0  9991,2 55917  69.9986 202.3906 0002630 285.7944  74.2927 15.03310290 41187,6934.834,95.789,558.523,554.875,0.0
55917.0,STARLINK-5855,PAYLOAD,2023-12-14 21:46:12,15.03323288,0.0002608,69.9983,200.0233,287.4431,72.6445,0.00048062,6.444e-05,0.0,0 STARLINK-5855,1 55917U 23037D   23348.90708708  .00006444  00000-0  48062-3 0  9992,2 55917  69.9983 200.0233 0002608 287.4431  72.6445 15.03323288 41321,6934.794,95.788,558.468,554.851,0.0
55917.0,STARLINK-5855,PAYLOAD,2023-12-14 23:22:01,15.03323633,0.000262,69.9983,199.8541,287.9607,72.1269,0.00045941,6.155e-05,0.0,0 STARLINK-5855,1 55917U 23037D   23348.97362554  .00006155  00000-0  45941-3 0  9996,2 55917  69.9983 199.8541 0002620 287.9607  72.1269 15.03323633 41673,6934.793,95.788,558.475,554.841,0.0
55917.0,STARLINK-5855,PAYLOAD,2023-12-15 21:43:25,15.03336348,0.0002622,69.9979,197.4862,286.8751,73.2123,0.00045402,6.084e-05,0.0,0 STARLINK-5855,1 55917U 23037D   23349.90515672  .00006084  00000-0  45402-3 0  9994,2 55917  69.9979 197.4862 0002622 286.8751  73.2123 15.03336348 41474,6934.754,95.787,558.437,554.801,0.0
55917.0,STARLINK-5855,PAYLOAD,2023-12-15 23:19:14,15.03337464,0.000261,69.998,197.3171,287.0488,73.0388,0.00043902,5.88e-05,0.0,0 STARLINK-5855,1 55917U 23037D   23349.97169423  .00005880  00000-0  43902-3 0  9996,2 55917  69.9980 197.3171 0002610 287.0488  73.0388 15.03337464 41487,6934.751,95.787,558.426,554.806,0.0
55917.0,STARLINK-5855,PAYLOAD,2023-12-16 20:04:49,15.03349844,0.0002537,69.9981,195.1187,284.2653,75.8227,0.00050037,6.718e-05,0.0,0 STARLINK-5855,1 55917U 23037D   23350.83668016  .00006718  00000-0  50037-3 0  9993,2 55917  69.9981 195.1187 0002537 284.2653  75.8227 15.03349844 41951,6934.713,95.786,558.337,554.818,0.0
55917.0,STARLINK-5855,PAYLOAD,2023-12-16 21:40:38,15.03348059,0.000258,69.998,194.9496,285.1233,74.9643,0.00039775,5.319e-05,0.0,0 STARLINK-5855,1 55917U 23037D   23350.90321776  .00005319  00000-0  39775-3 0  9992,2 55917  69.9980 194.9496 0002580 285.1233  74.9643 15.03348059 41625,6934.718,95.786,558.372,554.794,0.0
55917.0,STARLINK-5855,PAYLOAD,2023-12-17 15:14:34,15.03359475,0.0002474,69.9983,193.0897,283.5944,76.4942,0.00054195,7.287e-05,0.0,0 STARLINK-5855,1 55917U 23037D   23351.63512478  .00007287  00000-0  54195-3 0  9993,2 55917  69.9983 193.0897 0002474 283.5944  76.4942 15.03359475 41731,6934.683,95.785,558.264,554.832,0.0
55917.0,STARLINK-5855,PAYLOAD,2023-12-17 21:37:49,15.03363445,0.0002625,69.9982,192.4136,285.6432,74.444,0.00053735,7.225e-05,0.0,0 STARLINK-5855,1 55917U 23037D   23351.90127141  .00007225  00000-0  53735-3 0  9993,2 55917  69.9982 192.4136 0002625 285.6432  74.4440 15.03363445 41779,6934.671,95.785,558.356,554.715,0.0
55917.0,STARLINK-5855,PAYLOAD,2023-12-17 23:13:38,15.03364173,0.000262,69.9982,192.2445,285.6966,74.3906,0.00053395,7.179e-05,0.0,0 STARLINK-5855,1 55917U 23037D   23351.96780802  .00007179  00000-0  53395-3 0  9998,2 55917  69.9982 192.2445 0002620 285.6966  74.3906 15.03364173 42122,6934.669,95.785,558.35,554.717,0.0
55917.0,STARLINK-5855,PAYLOAD,2023-12-18 13:35:57,15.03371495,0.0002572,69.9985,190.7228,284.7417,75.346,0.00052845,7.105e-05,0.0,0 STARLINK-5855,1 55917U 23037D   23352.56663552  .00007105  00000-0  52845-3 0  9995,2 55917  69.9985 190.7228 0002572 284.7417  75.3460 15.03371495 41876,6934.646,95.785,558.295,554.727,0.0
55917.0,STARLINK-5855,PAYLOAD,2023-12-18 21:35:01,15.03372309,0.0002469,69.999,189.8773,286.9405,73.1486,0.00041827,5.602e-05,0.0,0 STARLINK-5855,1 55917U 23037D   23352.89931740  .00005602  00000-0  41827-3 0  9996,2 55917  69.9990 189.8773 0002469 286.9405  73.1486 15.03372309 41927,6934.644,95.785,558.221,554.796,0.0
55917.0,STARLINK-5855,PAYLOAD,2023-12-19 13:33:08,15.03382797,0.0002504,69.999,188.1863,287.5983,72.4904,0.00046884,6.294e-05,0.0,0 STARLINK-5855,1 55917U 23037D   23353.56467684  .00006294  00000-0  46884-3 0  9998,2 55917  69.9990 188.1863 0002504 287.5983  72.4904 15.03382797 42028,6934.611,95.784,558.213,554.74,0.0
55917.0,STARLINK-5855,PAYLOAD,2023-12-19 19:56:22,15.03383834,0.0002644,69.999,187.5102,287.9906,72.0968,0.00040772,5.46e-05,0.0,0 STARLINK-5855,1 55917U 23037D   23353.83081837  .00005460  00000-0  40772-3 0  9994,2 55917  69.9990 187.5102 0002644 287.9906  72.0968 15.03383834 42402,6934.608,95.784,558.307,554.64,0.0
55917.0,STARLINK-5855,PAYLOAD,2023-12-20 13:30:17,15.0339857,0.0002642,69.9991,185.6501,293.5674,66.521,2.8914e-05,2.96e-06,0.0,0 STARLINK-5855,1 55917U 23037D   23354.56270410  .00000296  00000-0  28914-4 0  9999,2 55917  69.9991 185.6501 0002642 293.5674  66.5210 15.03398570 42173,6934.563,95.783,558.26,554.596,0.0
55917.0,STARLINK-5855,PAYLOAD,2023-12-20 21:29:21,15.03397298,0.0002729,69.999,184.8049,290.128,69.9587,0.00041697,5.588e-05,0.0,0 STARLINK-5855,1 55917U 23037D   23354.89538299  .00005588  00000-0  41697-3 0  9998,2 55917  69.9990 184.8049 0002729 290.1280  69.9587 15.03397298 42228,6934.567,95.783,558.324,554.539,0.0
55917.0,STARLINK-5855,PAYLOAD,2023-12-20 23:05:09,15.03398329,0.0002718,69.999,184.6359,289.6919,70.3949,0.00042027,5.633e-05,0.0,0 STARLINK-5855,1 55917U 23037D   23354.96191786  .00005633  00000-0  42027-3 0  9991,2 55917  69.9990 184.6359 0002718 289.6919  70.3949 15.03398329 42572,6934.564,95.783,558.313,554.544,0.0
55917.0,STARLINK-5855,PAYLOAD,2023-12-21 15:03:15,15.0340491,0.0002666,69.999,182.9457,287.8601,72.2269,0.0003911,5.236e-05,0.0,0 STARLINK-5855,1 55917U 23037D   23355.62726625  .00005236  00000-0  39110-3 0  9999,2 55917  69.9990 182.9457 0002666 287.8601  72.2269 15.03404910 42336,6934.543,95.783,558.257,554.56,0.0
55917.0,STARLINK-5855,PAYLOAD,2023-12-21 21:26:30,15.03407831,0.0002699,69.999,182.2692,289.3321,70.7549,0.0003875,5.188e-05,0.0,0 STARLINK-5855,1 55917U 23037D   23355.89340480  .00005188  00000-0  38750-3 0  9994,2 55917  69.9990 182.2692 0002699 289.3321  70.7549 15.03407831 42375,6934.534,95.782,558.271,554.528,0.0
55917.0,STARLINK-5855,PAYLOAD,2023-12-22 15:00:24,15.03417517,0.0002707,69.9989,180.4094,290.1399,69.9471,0.00043598,5.851e-05,0.0,0 STARLINK-5855,1 55917U 23037D   23356.62528255  .00005851  00000-0  43598-3 0  9997,2 55917  69.9989 180.4094 0002707 290.1399  69.9471 15.03417517 42482,6934.505,95.782,558.247,554.492,0.0
55917.0,STARLINK-5855,PAYLOAD,2023-12-22 19:47:50,15.03419975,0.0002697,69.9988,179.9021,290.0574,70.0297,0.00044315,5.949e-05,0.0,0 STARLINK-5855,1 55917U 23037D   23356.82488484  .00005949  00000-0  44315-3 0  9994,2 55917  69.9988 179.9021 0002697 290.0574  70.0297 15.03419975 42856,6934.497,95.782,558.232,554.492,0.0
55917.0,STARLINK-5855,PAYLOAD,2023-12-22 21:23:38,15.03419851,0.0002695,69.9988,179.7329,289.9424,70.1447,0.0004076,5.464e-05,0.0,0 STARLINK-5855,1 55917U 23037D   23356.89141888  .00005464  00000-0  40760-3 0  9997,2 55917  69.9988 179.7329 0002695 289.9424  70.1447 15.03419851 42529,6934.497,95.782,558.231,554.494,0.0
